,franchise,name,city,address,phone
0,BurgerKing,6,Москва,"пл Киевского вокзала 2, ТЦ Европейский 4 этаж",No data
1,BurgerKing,7,Москва,"ш Ленинградское 16А стр 4, ТЦ Метрополис 3 этаж",No data
2,BurgerKing,8,Москва,"просп Мира 211, ТЦ Европолис Ростокино 2 этаж",No data
3,BurgerKing,9,Москва,ТЦ Мега Теплый Стан,No data
4,BurgerKing,10,Москва,"ул Шереметьевская 20, ТЦ Капитолий Марьина Роща 3 этаж",No data
5,BurgerKing,11,Москва,"просп Вернадского 6, ТЦ Капитолий Вернадского 3 этаж",No data
6,BurgerKing,19,Москва,"ул Земляной Вал 33, ТЦ Атриум 4 этаж",No data
7,BurgerKing,20,Москва,"наб Пресненская 2, ТЦ Афимол Сити 4 этаж",No data
8,BurgerKing,21,Москва,ул Красная Пресня 4,No data
9,BurgerKing,22,Москва,"ул Маршала Бирюзова 32, ТЦ 5 Авеню 3 этаж",No data
10,BurgerKing,27,Москва,ул Барклая 10,No data
11,BurgerKing,31,Москва,"ул Профсоюзная 61, ТЦ Калужский 2 этаж",No data
12,BurgerKing,32,Москва,"ул Фестивальная 2Б, ТЦ Речной 3 этаж",No data
13,BurgerKing,35,Москва,"ул Люблинская 153, ТЦ Л-153 2 этаж",No data
14,BurgerKing,36,Москва,"пл Манежная 1 стр 2, ТЦ Охотный ряд -3 этаж",No data
15,BurgerKing,40,Москва,ТЦ Мега Белая Дача,No data
16,BurgerKing,43,Москва,ш Ярославское 69,No data
17,BurgerKing,46,Москва,"пр Дежнева 21, ТЦ Эгомолл 2 этаж",No data
18,BurgerKing,47,Москва,"ул Сущевский Вал 31 стр 1, ТЦ Оливье 1 этаж",No data
19,BurgerKing,48,Москва,ул Ленинская Слобода 17/2 стр 1,No data
20,BurgerKing,49,Москва,"просп Новоясеневский 11, ТЦ FORT Ясенево 2 этаж",No data
21,BurgerKing,51,Москва,"ул Бол Черёмушкинская 1, ТЦ РИО 3 этаж",No data
22,BurgerKing,52,Москва,"ул Дубравная 34/29, ТЦ Ладья 2 этаж",No data
23,BurgerKing,54,Москва,ул Садово-Кудринская 3А,No data
24,BurgerKing,57,Москва,"пересечение МКАД / ш Каширское, ТЦ Вегас 2 этаж",No data
25,BurgerKing,60,Москва,"просп Новоясеневский 1, ТЦ Спектр 2 этаж",No data
26,BurgerKing,61,Москва,"МКАД 28 км стр 2В, АЗС Лукойл",No data
27,BurgerKing,63,Москва,"ул Цветной Бульвар 13, Цирк Никулина",No data
28,BurgerKing,64,Москва,"пр Багратионовский 5, ТЦ Филион 3 этаж",No data
29,BurgerKing,65,Москва,"Зеленоград просп Панфиловский 6А, ТЦ Панфиловский 2 этаж",No data
30,BurgerKing,66,Москва,"ул Планерная 7, ТПУ Планерная",No data
31,BurgerKing,68,Москва,"ул Верхняя Красносельская 3А, ТЦ Тройка 3 этаж",No data
32,BurgerKing,72,Москва,"Аэропорт Внуково, Внутренние линии gate 8-17, «чистая» зона 3 этаж",No data
33,BurgerKing,75,Москва,"ул Перерва 43/1, ТЦ Бум 2 этаж",No data
34,BurgerKing,76,Москва,"ул Профсоюзная 129А, ТЦ Принц Плаза 4 этаж",No data
35,BurgerKing,80,Москва,"ул Вавилова 3, ТЦ Гагаринский 3 этаж",No data
36,BurgerKing,83,Москва,"ул Сходненская 56, ТЦ Калейдоскоп 4 этаж",No data
37,BurgerKing,85,Москва,"ул Кустанайская 6, ТЦ Столица",No data
38,BurgerKing,86,Москва,"ул Правобережная 1Б, ТЦ Капитолий Ленинградский 2 этаж",No data
39,BurgerKing,89,Москва,"бул Ореховый 14 корп 3, ТЦ Домодедовский 3 этаж",No data
40,BurgerKing,91,Москва,"ул Профсоюзная 126 корп 2, ТЦ Коньково-Пассаж",No data
41,BurgerKing,97,Москва,ул Большая Полянка 28 корп 1,No data
42,BurgerKing,98,Москва,"ш Дмитровское 163А копр 1, ТЦ РИО 2 этаж",No data
43,BurgerKing,110,Москва,ул Измайловский Вал 2,No data
44,BurgerKing,113,Москва,"Аэропорт Домодедово, «грязная» зона 2 этаж",No data
45,BurgerKing,114,Москва,"Аэропорт Внуково, Международные линии gate 18-31, «чистая» зона 3 этаж",No data
46,BurgerKing,118,Москва,"ул Шереметьевская 6, ТЦ Райкин Плаза 4 этаж",No data
47,BurgerKing,119,Москва,"ш Каширское 14, ТЦ Гудзон 3 этаж",No data
48,BurgerKing,125,Москва,"ш Варшавское 158, ТЦ Атлантис 1 этаж",No data
49,BurgerKing,126,Москва,ул Люблинская 92 корп 2,No data
50,BurgerKing,132,Москва,ул Большая Тульская 2,No data
51,BurgerKing,143,Москва,ул Первомайская 42,No data
52,BurgerKing,157,Москва,"просп Балаклавский 5А, ТЦ Штаер",No data
53,BurgerKing,159,Москва,"ш Щелковское д 100, ТЦ Щелково 3 этаж",No data
54,BurgerKing,160,Москва,"МКАД 56 км, ТЦ Вегас Кунцево 2 этаж",No data
55,BurgerKing,161,Москва,"ш Варшавское 95 корп 1, ТЦ Аэробус 1 этаж",No data
56,BurgerKing,165,Москва,"просп Рязанский 2, ТЦ Город 2 этаж",No data
57,BurgerKing,172,Москва,ул Малая Филевская 13,No data
58,BurgerKing,183,Москва,"просп Вернадского 14А, ТЦ Обувь-Сити 1 этаж",No data
59,BurgerKing,197,Москва,"просп Зеленый 62Д, ТЦ Шангал",No data
60,BurgerKing,213,Москва,"МКАД 60 км вл 4, БЦ Колизей",No data
61,BurgerKing,214,Москва,"ул 7-я Кожуховская 9, ТЦ Мозаика 3 этаж",No data
62,BurgerKing,215,Москва,"ш Варшавское 140, ТЦ Коламбус 3 этаж",No data
63,BurgerKing,231,Москва,"ул Краснодарская 51 корп 2, ТЦ Люблинский Пассаж",No data
64,BurgerKing,239,Москва,"пр Локомотивный 4, ТЦ Парус 3 этаж",No data
65,BurgerKing,244,Москва,"ул Енисейская 19 корп 1, ТЦ Радужный 3 этаж",No data
66,BurgerKing,250,Москва,"ул Бауманская 32 стр 2, ТЦ Елоховский Пассаж",No data
67,BurgerKing,252,Москва,"ул Ярцевская 19, ТЦ Кунцево Плаза 4 этаж",No data
68,BurgerKing,261,Москва,"ш Измайловское 69Д, ТЦ Альбатрос",No data
69,BurgerKing,269,Москва,пл Сокольническая 9А,No data
70,BurgerKing,275,Москва,"ш Дмитровское 89, ТЦ XL 2 этаж",No data
71,BurgerKing,285,Москва,ул Воздвиженка 9 стр 2,No data
72,BurgerKing,286,Москва,ш Боровское 51 стр 1,No data
73,BurgerKing,291,Москва,"просп Мичуринский Олимпийская деревня 3 корп 1, ТЦ Фестиваль 3 этаж",No data
74,BurgerKing,297,Москва,"ул Профсоюзная 56, ТЦ Черемушки 4 этаж",No data
75,BurgerKing,300,Москва,"ул Поречная 10, ТЦ Мари 4 этаж",No data
76,BurgerKing,307,Москва,"пр Театральный 5, ТЦ Центральный Детский Мир 6 этаж",No data
77,BurgerKing,313,Москва,ул 9-я Парковая 68,No data
78,BurgerKing,317,Москва,"ул Профсоюзная 102 стр 1, ТЦ Ареал",No data
79,BurgerKing,320,Москва,"ш Ленинградское 18 км, ТЦ Зеленопарк 1 этаж",No data
80,BurgerKing,321,Москва,"ул Автозаводская 18, ТЦ Ривьера 4 этаж",No data
81,BurgerKing,323,Москва,ул Земляной Вал 26 стр 1,No data
82,BurgerKing,325,Москва,бул Зубовский 17 стр 1,No data
83,BurgerKing,326,Москва,"ул Щукинская 42, ТЦ Щука 4 этаж",No data
84,BurgerKing,327,Москва,"просп Вернадского 86Б стр 1, ТЦ Альмирал 2 этаж",No data
85,BurgerKing,333,Москва,ул Лухмановская 2,No data
86,BurgerKing,335,Москва,"просп Мира 92, ТЦ Крестовский",No data
87,BurgerKing,338,Москва,ул Митинская 53,No data
88,BurgerKing,339,Москва,"пр Сигнальный 17, ТЦ Ашан 1 этаж",No data
89,BurgerKing,340,Москва,"ш Бесединское 15, ТЦ Ашан 1 этаж",No data
90,BurgerKing,341,Москва,"ул Поляны 8, ТЦ Вива 2 этаж",No data
91,BurgerKing,342,Москва,"ул Бартеневская 12, ТЦ Карусель",No data
92,BurgerKing,346,Москва,"ул Широкая 13А, ТЦ Медведковский",No data
93,BurgerKing,347,Москва,"бул Строгинский 1, ТЦ Дарья",No data
94,BurgerKing,348,Москва,"ул Люблинская 169 корп 2, ТЦ Мариэль 3 этаж",No data
95,BurgerKing,349,Москва,"ш Головинское 5, ТЦ Водный 3 этаж",No data
96,BurgerKing,352,Москва,"ш Алтуфьевское 8, ТЦ Алтуфьевский 3 этаж",No data
97,BurgerKing,357,Москва,"ул Бирюлевская 51, ТЦ Перекресток",No data
98,BurgerKing,358,Москва,"просп Кутузовский 57, ТЦ Океания 3 этаж",No data
99,BurgerKing,359,Москва,"ш Хорошевское 27, ТЦ Хорошо 4 этаж",No data
100,BurgerKing,374,Москва,ул Маршала Катукова 23,No data
101,BurgerKing,379,Москва,"ул Декабристов 12, ТЦ FORT Отрадное 2 этаж",No data
102,BurgerKing,386,Москва,"ул Азовская 24 корп 3, ТЦ Азовский 3 этаж",No data
103,BurgerKing,389,Москва,ш Боровское 2,No data
104,BurgerKing,392,Москва,пл Преображенская 6,No data
105,BurgerKing,396,Москва,ш Варшавское 153,No data
106,BurgerKing,397,Москва,ул 1-я Останкинская 57,No data
107,BurgerKing,398,Москва,"ул Святоозерская 1А, ТЦ Косино Парк 2 этаж",No data
108,BurgerKing,405,Москва,"просп Андропова 22, ТЦ Нора 3 этаж",No data
109,BurgerKing,406,Москва,"ш Варшавское 87Б, ТЦ Варшавский 3 этаж",No data
110,BurgerKing,418,Москва,"ш Боровское 6, ТЦ Солнечный 2 этаж",No data
111,BurgerKing,419,Москва,ул Литовский бульвар 22,No data
112,BurgerKing,430,Москва,"просп Лермонтовский 19 корп 1, ТЦ Феникс",No data
113,BurgerKing,435,Москва,"мкр Северное Чертаново 1А, ТЦ Авентура 2 этаж",No data
114,BurgerKing,443,Москва,"просп Ленинградский 76А, ТЦ Метромаркет 3 этаж",No data
115,BurgerKing,454,Москва,"ул Пришвина 26, ТЦ Миллион Мелочей",No data
116,BurgerKing,459,Москва,ул Кадырова 1,No data
117,BurgerKing,460,Москва,"пр Огородный 10 стр 2,  ТЦ Зеленый",No data
118,BurgerKing,462,Москва,"ул Красного Маяка д 2Б , ТЦ Коламбус",No data
119,BurgerKing,465,Москва,"ул Кировоградская 14, ТЦ Глобал Сити 2 этаж",No data
120,BurgerKing,470,Москва,ш Каширское 23 км 6А,No data
121,BurgerKing,476,Москва,просп Мира 39 стр 2,No data
122,BurgerKing,482,Москва,Таганская 2,No data
123,BurgerKing,483,Москва,"ул Сущевский вал 5 стр 8, ТЦ Савеловский",No data
124,BurgerKing,490,Москва,"ул Вешняковская 18, ТЦ Вешняки 4 этаж",No data
125,BurgerKing,495,Москва,пер Панкратьевский 2,No data
126,BurgerKing,500,Москва,"просп Андропова 8, ТЦ Мегаполис 3 этаж",No data
127,BurgerKing,513,Москва,ул Бутырская 6,No data
128,BurgerKing,577,Москва,"ул Кировоградская 9 корп 4, ТЦ Южный",No data
129,BurgerKing,580,Москва,Открытое ш 5 стр 14,No data
130,BurgerKing,581,Москва,ТЦ Мега Белая Дача 2,No data
131,BurgerKing,586,Москва,ул Народного Ополчения 47 к 1,No data
132,BurgerKing,587,Москва,"ш Каширское 61Г, ТЦ Каширская Плаза 4 этаж",No data
133,BurgerKing,604,Москва,ул Лобачевского 19,No data
134,BurgerKing,617,Москва,"ш Дмитровское 73, ТЦ Метромолл 2 этаж",No data
135,BurgerKing,618,Москва,ул Покровская 20,No data
136,BurgerKing,627,Москва,ул Большая Серпуховская 6/5,No data
137,BurgerKing,631,Москва,ул Елецкая 15,No data
138,BurgerKing,677,Москва,"пл Тверская Застава 7с1, Белорусский вокзал",No data
139,BurgerKing,678,Москва,"пл Павелецкая 1А, Павелецкий вокзал",No data
140,BurgerKing,679,Москва,пл Комсомольская 2А,No data
141,BurgerKing,685,Москва,"ул Адмирала Макарова 6 стр 13, ТЦ Невский причал",No data
142,BurgerKing,709,Москва,пр 1-й Угрешский 11,No data
143,BurgerKing,712,Москва,просп Зеленый 79А,No data
144,BurgerKing,715,Москва,ш Дмитровское 13А,No data
145,BurgerKing,717,Москва,"ул Авиаконструктора Миля вл 7, ТЦ МИЛЯ 3 этаж",No data
146,BurgerKing,718,Москва,"ул Удальцова 42, ТЦ Перекресток",No data
147,BurgerKing,758,Москва,"ул Новопетровская 6, ТЦ Петровский 3 этаж",No data
148,BurgerKing,788,Москва,"ш Энтузиастов 12 корп 2, ТЦ Город-Лефортово 3 этаж",No data
149,BurgerKing,817,Москва,"просп Ленинский вл 123 корп 1, ТЦ Галеон 2 этаж",No data
150,BurgerKing,834,Москва,ул Волжский бульвар 113А корп 1,No data
151,BurgerKing,835,Москва,"ул Тушинская 17, ТЦ Праздник 3 этаж",No data
152,BurgerKing,847,Москва,"Комсомольская площадь 5 стр 1, Ярославский вокзал",No data
153,BurgerKing,855,Москва,"бул Кронштадтский 3а, ТЦ Гавань 2 этаж",No data
154,BurgerKing,859,Москва,"Аэропорт Домодедово, терминал Т1 «грязная» зона 1 этаж",No data
155,BurgerKing,899,Москва,"просп Севастопольский 11Е, ТЦ Капитолий 3 этаж",No data
156,BurgerKing,900,Москва,"ш Аминьевское 6, ТЦ Квартал W 4 этаж",No data
157,BurgerKing,921,Москва,"ул Старокачаловская 5А, ТЦ Круг 2 этаж",No data
158,BurgerKing,949,Москва,"ул Орджоникидзе 11, Дисконт-Центр 1 этаж",No data
159,BurgerKing,989,Москва,"ш Измайловское 71А, ТЦ АСТ 3 этаж",No data
160,BurgerKing,995,Москва,"бул Ореховый 45, ТЦ Орех",No data
161,BurgerKing,1020,Москва,"просп Ленинградский 36, ТЦ Арена Плаза 1 этаж",No data
162,BurgerKing,1094,Москва,бул Страстной 6,No data
163,BurgerKing,1095,Москва,ул Авиамоторная 41Б,No data
164,BurgerKing,1098,Москва,внутренняя сторона МКАД 33 км вл 6,No data
165,BurgerKing,1104,Москва,"Аэропорт Домодедово, терминал Т1 «чистая» зона 2 этаж",No data
166,BurgerKing,1196,Москва,ул Федосьино 12,No data
167,BurgerKing,1215,Москва,"Павелецкая площадь Литер А, ТЦ Павелецкая Плаза 2 этаж",No data
168,BurgerKing,1289,Москва,"ул Каховка 29А, ТЦ Прайм Плаза 4 этаж",No data
169,BurgerKing,1301,Москва,"ш Алтуфьевское 70 корп 1, ТЦ Маркос Молл 3 этаж",No data
170,BurgerKing,1306,Москва,"ул Снежная 27, ТЦ Свиблово 3 этаж",No data
171,BurgerKing,1307,Москва,"МКАД 87 км 8, ТЦ ЧАС ПИК 3 этаж",No data
172,BurgerKing,1331,Москва,"ул Миклухо-Маклая 32А, ТЦ Капитолий 2 этаж",No data
173,BurgerKing,1347,Москва,"ул Большая Грузинская 1 стр 1, Московский Зоопар",No data
